[{"OBJECT_NAME":"GAOFEN-3","OBJECT_ID":"2016-049A","EPOCH":"2026-03-10T00:17:49.684704","MEAN_MOTION":14.42215824,"ECCENTRICITY":0.00016662,"INCLINATION":98.4056,"RA_OF_ASC_NODE":78.2808,"ARG_OF_PERICENTER":90.4682,"MEAN_ANOMALY":269.6698,"EPHEMERIS_TYPE":0,"CLASSIFICATION_TYPE":"U","NORAD_CAT_ID":41727,"ELEMENT_SET_NO":999,"REV_AT_EPOCH":50435,"BSTAR":-1.4677779e-5,"MEAN_MOTION_DOT":-9.2e-7,"MEAN_MOTION_DDOT":0},{"OBJECT_NAME":"SL-8 R\/B","OBJECT_ID":"1989-005B","EPOCH":"2026-03-09T22:48:04.980960","MEAN_MOTION":14.40308621,"ECCENTRICITY":0.00055218,"INCLINATION":74.0439,"RA_OF_ASC_NODE":290.5124,"ARG_OF_PERICENTER":293.108,"MEAN_ANOMALY":169.9543,"EPHEMERIS_TYPE":0,"CLASSIFICATION_TYPE":"U","NORAD_CAT_ID":19770,"ELEMENT_SET_NO":999,"REV_AT_EPOCH":94486,"BSTAR":7.990505e-5,"MEAN_MOTION_DOT":2.27e-6,"MEAN_MOTION_DDOT":0}]
